start=new Date('2023-01-27T00:00:00.000Z').valueOf();
sats=[{"ELEMENT_SET_NO":"999","REF_FRAME":"TEME","TLE_LINE2":"2 52465  53.2185 118.5286 0001628  93.7445 266.3733 15.08845807 40569","ECCENTRICITY":"0.00016280","INCLINATION":"53.2185","FILE":"3761951","MEAN_ANOMALY":"266.3733","PERIOD":"95.437","ARG_OF_PERICENTER":"93.7445","LAUNCH_DATE":"2022-05-06","NORAD_CAT_ID":"52465","EPOCH":"2023-01-26T12:41:46.682592","CENTER_NAME":"EARTH","MEAN_MOTION_DDOT":"0.0000000000000","OBJECT_ID":"2022-049Q","SITE":"AFETR","OBJECT_TYPE":"PAYLOAD","OBJECT_NAME":"STARLINK-3863","CLASSIFICATION_TYPE":"U","COUNTRY_CODE":"US","SEMIMAJOR_AXIS":"6917.863","REV_AT_EPOCH":"4056","MEAN_MOTION":"15.08845807","MEAN_MOTION_DOT":"0.00001197","MEAN_ELEMENT_THEORY":"SGP4","RCS_SIZE":"LARGE","GP_ID":"223757252","EPHEMERIS_TYPE":"0","BSTAR":"0.00009326200000","PERIAPSIS":"538.601","DECAY_DATE":null,"RA_OF_ASC_NODE":"118.5286","TLE_LINE1":"1 52465U 22049Q   23026.52901253  .00001197  00000-0  93262-4 0  9993","TIME_SYSTEM":"UTC","APOAPSIS":"540.854"},{"FILE":"3762043","INCLINATION":"53.2188","ECCENTRICITY":"0.00023080","TLE_LINE2":"2 52466  53.2188 128.2499 0002308  92.3026 267.8231 15.08846984 40592","REF_FRAME":"TEME","ARG_OF_PERICENTER":"92.3026","PERIOD":"95.437","MEAN_ANOMALY":"267.8231","ELEMENT_SET_NO":"999","MEAN_MOTION_DDOT":"0.0000000000000","OBJECT_ID":"2022-049R","CENTER_NAME":"EARTH","EPOCH":"2023-01-26T14:10:32.483136","SITE":"AFETR","NORAD_CAT_ID":"52466","LAUNCH_DATE":"2022-05-06","REV_AT_EPOCH":"4059","SEMIMAJOR_AXIS":"6917.859","MEAN_MOTION":"15.08846984","OBJECT_NAME":"STARLINK-3840","OBJECT_TYPE":"PAYLOAD","COUNTRY_CODE":"US","CLASSIFICATION_TYPE":"U","DECAY_DATE":null,"RA_OF_ASC_NODE":"128.2499","PERIAPSIS":"538.127","BSTAR":"0.00010175000000","APOAPSIS":"541.321","TIME_SYSTEM":"UTC","TLE_LINE1":"1 52466U 22049R   23026.59065374  .00001332  00000-0  10175-3 0  9998","MEAN_ELEMENT_THEORY":"SGP4","MEAN_MOTION_DOT":"0.00001332","EPHEMERIS_TYPE":"0","GP_ID":"223762470","RCS_SIZE":"LARGE"},{"FILE":"3762334","INCLINATION":"53.2159","REF_FRAME":"TEME","TLE_LINE2":"2 52467  53.2159 126.4526 0001176  93.4076 266.7051 15.08850580 40653","ECCENTRICITY":"0.00011760","PERIOD":"95.437","ARG_OF_PERICENTER":"93.4076","MEAN_ANOMALY":"266.7051","ELEMENT_SET_NO":"999","CENTER_NAME":"EARTH","MEAN_MOTION_DDOT":"0.0000000000000","OBJECT_ID":"2022-049S","EPOCH":"2023-01-26T23:48:09.068832","SITE":"AFETR","NORAD_CAT_ID":"52467","LAUNCH_DATE":"2022-05-06","REV_AT_EPOCH":"4065","SEMIMAJOR_AXIS":"6917.848","MEAN_MOTION":"15.08850580","OBJECT_NAME":"STARLINK-3873","OBJECT_TYPE":"PAYLOAD","COUNTRY_CODE":"US","CLASSIFICATION_TYPE":"U","DECAY_DATE":null,"PERIAPSIS":"538.900","RA_OF_ASC_NODE":"126.4526","BSTAR":"0.00034213000000","APOAPSIS":"540.527","TLE_LINE1":"1 52467U 22049S   23026.99177163  .00005163  00000-0  34213-3 0  9998","TIME_SYSTEM":"UTC","MEAN_ELEMENT_THEORY":"SGP4","MEAN_MOTION_DOT":"0.00005163","EPHEMERIS_TYPE":"0","GP_ID":"223769139","RCS_SIZE":"LARGE"},{"OBJECT_NAME":"STARLINK-3864","OBJECT_TYPE":"PAYLOAD","CLASSIFICATION_TYPE":"U","COUNTRY_CODE":"US","REV_AT_EPOCH":"4065","SEMIMAJOR_AXIS":"6917.867","MEAN_MOTION":"15.08844472","MEAN_ELEMENT_THEORY":"SGP4","MEAN_MOTION_DOT":"0.00003466","EPHEMERIS_TYPE":"0","GP_ID":"223769137","RCS_SIZE":"LARGE","DECAY_DATE":null,"PERIAPSIS":"538.959","RA_OF_ASC_NODE":"126.5184","BSTAR":"0.00023569000000","APOAPSIS":"540.504","TIME_SYSTEM":"UTC","TLE_LINE1":"1 52468U 22049T   23026.97705632  .00003466  00000-0  23569-3 0  9991","ELEMENT_SET_NO":"999","INCLINATION":"53.2168","FILE":"3762334","REF_FRAME":"TEME","TLE_LINE2":"2 52468  53.2168 126.5184 0001117 109.1212 250.9901 15.08844472 40659","ECCENTRICITY":"0.00011170","PERIOD":"95.437","ARG_OF_PERICENTER":"109.1212","MEAN_ANOMALY":"250.9901","NORAD_CAT_ID":"52468","LAUNCH_DATE":"2022-05-06","OBJECT_ID":"2022-049T","MEAN_MOTION_DDOT":"0.0000000000000","CENTER_NAME":"EARTH","EPOCH":"2023-01-26T23:26:57.666048","SITE":"AFETR"},{"DECAY_DATE":null,"PERIAPSIS":"539.082","RA_OF_ASC_NODE":"126.4829","BSTAR":"0.00034414000000","APOAPSIS":"540.363","TIME_SYSTEM":"UTC","TLE_LINE1":"1 52469U 22049U   23026.98441446  .00005195  00000-0  34414-3 0  9995","MEAN_ELEMENT_THEORY":"SGP4","MEAN_MOTION_DOT":"0.00005195","EPHEMERIS_TYPE":"0","GP_ID":"223769131","RCS_SIZE":"LARGE","REV_AT_EPOCH":"4065","SEMIMAJOR_AXIS":"6917.857","MEAN_MOTION":"15.08847602","OBJECT_NAME":"STARLINK-3828","OBJECT_TYPE":"PAYLOAD","COUNTRY_CODE":"US","CLASSIFICATION_TYPE":"U","MEAN_MOTION_DDOT":"0.0000000000000","OBJECT_ID":"2022-049U","CENTER_NAME":"EARTH","EPOCH":"2023-01-26T23:37:33.409344","SITE":"AFETR","NORAD_CAT_ID":"52469","LAUNCH_DATE":"2022-05-06","FILE":"3762334","INCLINATION":"53.2175","ECCENTRICITY":"0.00009260","TLE_LINE2":"2 52469  53.2175 126.4829 0000926 101.4387 258.6709 15.08847602 40657","REF_FRAME":"TEME","PERIOD":"95.437","ARG_OF_PERICENTER":"101.4387","MEAN_ANOMALY":"258.6709","ELEMENT_SET_NO":"999"},{"DECAY_DATE":null,"PERIAPSIS":"538.546","RA_OF_ASC_NODE":"126.5498","BSTAR":"0.00000801980000","APOAPSIS":"540.944","TIME_SYSTEM":"UTC","TLE_LINE1":"1 52470U 22049V   23026.96969992 -.00000160  00000-0  80198-5 0  9996","MEAN_ELEMENT_THEORY":"SGP4","MEAN_MOTION_DOT":"-0.00000160","EPHEMERIS_TYPE":"0","RCS_SIZE":"LARGE","GP_ID":"223769133","REV_AT_EPOCH":"4065","SEMIMAJOR_AXIS":"6917.880","MEAN_MOTION":"15.08840204","OBJECT_NAME":"STARLINK-3859","OBJECT_TYPE":"PAYLOAD","CLASSIFICATION_TYPE":"U","COUNTRY_CODE":"US","MEAN_MOTION_DDOT":"0.0000000000000","OBJECT_ID":"2022-049V","CENTER_NAME":"EARTH","EPOCH":"2023-01-26T23:16:22.073088","SITE":"AFETR","NORAD_CAT_ID":"52470","LAUNCH_DATE":"2022-05-06","FILE":"3762334","INCLINATION":"53.2163","ECCENTRICITY":"0.00017330","TLE_LINE2":"2 52470  53.2163 126.5498 0001733  73.1174 287.0008 15.08840204 40654","REF_FRAME":"TEME","PERIOD":"95.438","ARG_OF_PERICENTER":"73.1174","MEAN_ANOMALY":"287.0008","ELEMENT_SET_NO":"999"},{"OBJECT_NAME":"STARLINK-3862","OBJECT_TYPE":"PAYLOAD","COUNTRY_CODE":"US","CLASSIFICATION_TYPE":"U","REV_AT_EPOCH":"4043","SEMIMAJOR_AXIS":"6917.870","MEAN_MOTION":"15.08843442","MEAN_ELEMENT_THEORY":"SGP4","MEAN_MOTION_DOT":"0.00001552","EPHEMERIS_TYPE":"0","RCS_SIZE":"LARGE","GP_ID":"223757753","DECAY_DATE":null,"PERIAPSIS":"538.607","RA_OF_ASC_NODE":"128.2805","BSTAR":"0.00011558000000","APOAPSIS":"540.862","TLE_LINE1":"1 52471U 22049W   23026.58329156  .00001552  00000-0  11558-3 0  9994","TIME_SYSTEM":"UTC","ELEMENT_SET_NO":"999","FILE":"3761951","INCLINATION":"53.2182","TLE_LINE2":"2 52471  53.2182 128.2805 0001630  97.3657 262.7521 15.08843442 40430","REF_FRAME":"TEME","ECCENTRICITY":"0.00016300","PERIOD":"95.437","ARG_OF_PERICENTER":"97.3657","MEAN_ANOMALY":"262.7521","NORAD_CAT_ID":"52471","LAUNCH_DATE":"2022-05-06","CENTER_NAME":"EARTH","OBJECT_ID":"2022-049W","MEAN_MOTION_DDOT":"0.0000000000000","EPOCH":"2023-01-26T13:59:56.390784","SITE":"AFETR"},{"DECAY_DATE":null,"RA_OF_ASC_NODE":"126.5681","PERIAPSIS":"538.418","BSTAR":"0.00065100000000","APOAPSIS":"541.033","TLE_LINE1":"1 52472U 22049X   23026.96601962  .00010090  00000-0  65100-3 0  9994","TIME_SYSTEM":"UTC","MEAN_ELEMENT_THEORY":"SGP4","MEAN_MOTION_DOT":"0.00010090","EPHEMERIS_TYPE":"0","GP_ID":"223769138","RCS_SIZE":"LARGE","REV_AT_EPOCH":"4065","SEMIMAJOR_AXIS":"6917.861","MEAN_MOTION":"15.08846486","OBJECT_NAME":"STARLINK-3881","OBJECT_TYPE":"PAYLOAD","COUNTRY_CODE":"US","CLASSIFICATION_TYPE":"U","CENTER_NAME":"EARTH","MEAN_MOTION_DDOT":"0.0000000000000","OBJECT_ID":"2022-049X","EPOCH":"2023-01-26T23:11:04.095168","SITE":"AFETR","NORAD_CAT_ID":"52472","LAUNCH_DATE":"2022-05-06","FILE":"3762334","INCLINATION":"53.2155","REF_FRAME":"TEME","TLE_LINE2":"2 52472  53.2155 126.5681 0001890  77.8578 282.2626 15.08846486 40655","ECCENTRICITY":"0.00018900","PERIOD":"95.437","ARG_OF_PERICENTER":"77.8578","MEAN_ANOMALY":"282.2626","ELEMENT_SET_NO":"999"},{"RA_OF_ASC_NODE":"128.6204","DECAY_DATE":null,"PERIAPSIS":"538.526","BSTAR":"0.00020621000000","APOAPSIS":"540.933","TLE_LINE1":"1 52473U 22049Y   23026.50969661  .00002996  00000-0  20621-3 0  9993","TIME_SYSTEM":"UTC","MEAN_ELEMENT_THEORY":"SGP4","MEAN_MOTION_DOT":"0.00002996","EPHEMERIS_TYPE":"0","RCS_SIZE":"LARGE","GP_ID":"223762510","REV_AT_EPOCH":"4058","SEMIMAJOR_AXIS":"6917.864","MEAN_MOTION":"15.08845254","OBJECT_NAME":"STARLINK-3879","OBJECT_TYPE":"PAYLOAD","CLASSIFICATION_TYPE":"U","COUNTRY_CODE":"US","CENTER_NAME":"EARTH","MEAN_MOTION_DDOT":"0.0000000000000","OBJECT_ID":"2022-049Y","EPOCH":"2023-01-26T12:13:57.787104","SITE":"AFETR","NORAD_CAT_ID":"52473","LAUNCH_DATE":"2022-05-06","FILE":"3762046","INCLINATION":"53.2146","TLE_LINE2":"2 52473  53.2146 128.6204 0001740  82.9409 277.1781 15.08845254 40583","ECCENTRICITY":"0.00017400","REF_FRAME":"TEME","PERIOD":"95.437","ARG_OF_PERICENTER":"82.9409","MEAN_ANOMALY":"277.1781","ELEMENT_SET_NO":"999"},{"TIME_SYSTEM":"UTC","TLE_LINE1":"1 52474U 22049Z   23026.52165807  .00010847  00000-0  69832-3 0  9997","APOAPSIS":"540.881","BSTAR":"0.00069832000000","RA_OF_ASC_NODE":"118.5565","DECAY_DATE":null,"PERIAPSIS":"538.530","RCS_SIZE":"LARGE","GP_ID":"223762478","EPHEMERIS_TYPE":"0","MEAN_MOTION_DOT":"0.00010847","MEAN_ELEMENT_THEORY":"SGP4","MEAN_MOTION":"15.08853022","SEMIMAJOR_AXIS":"6917.841","REV_AT_EPOCH":"4072","CLASSIFICATION_TYPE":"U","COUNTRY_CODE":"US","OBJECT_TYPE":"PAYLOAD","OBJECT_NAME":"STARLINK-3855","SITE":"AFETR","EPOCH":"2023-01-26T12:31:11.257248","OBJECT_ID":"2022-049Z","MEAN_MOTION_DDOT":"0.0000000000000","CENTER_NAME":"EARTH","LAUNCH_DATE":"2022-05-06","NORAD_CAT_ID":"52474","MEAN_ANOMALY":"259.6640","PERIOD":"95.437","ARG_OF_PERICENTER":"100.4544","REF_FRAME":"TEME","TLE_LINE2":"2 52474  53.2165 118.5565 0001699 100.4544 259.6640 15.08853022 40729","ECCENTRICITY":"0.00016990","FILE":"3762050","INCLINATION":"53.2165","ELEMENT_SET_NO":"999"}];
